ONEWEB-0140             
1 47286U 20100AE  25248.98589715  .00000007  00000+0 -16847-4 0  9990
2 47286  87.8885  47.1049 0001558  94.5540 265.5766 13.12441157227416
ONEWEB-0141             
1 47287U 20100AF  25249.18364208  .00000208  00000+0  54384-3 0  9991
2 47287  87.8880  47.0809 0001948  99.5146 260.6203 13.12444398227428
ONEWEB-0142             
1 47288U 20100AG  25249.17255692 -.00000264  00000+0 -76966-3 0  9991
2 47288  87.8891  47.0983 0001880 105.3483 254.7854 13.12442075227414
ONEWEB-0143             
1 47289U 20100AH  25249.18216140  .00000112  00000+0  27542-3 0  9994
2 47289  87.8890  47.0934 0001689  92.9148 267.2174 13.12443761227390
ONEWEB-0144             
1 47290U 20100AJ  25249.15458664 -.00000363  00000+0 -10446-2 0  9996
2 47290  87.8880  47.0748 0001616 103.1522 256.9787 13.12442657227315
ONEWEB-0145             
1 47291U 20100AK  25249.20163405  .00000575  00000+0  15637-2 0  9999
2 47291  87.8889  47.0962 0001620  96.2153 263.9160 13.12443345227510
ONEWEB-0146             
1 47292U 20100AL  25249.19838930  .00000461  00000+0  12454-2 0  9998
2 47292  87.8889  47.0834 0001802  82.3676 277.7657 13.12443007227426
ONEWEB-0147             
1 47293U 20100AM  25249.16431395 -.00000385  00000+0 -11055-2 0  9993
2 47293  87.8889  47.0686 0001385  93.5725 266.5562 13.12445151227318
ONEWEB-0115             
1 48042U 21025A   25249.26182381  .00000367  00000+0  96994-3 0  9996
2 48042  87.9027  16.6140 0001724  96.6193 263.5133 13.13471614216327
ONEWEB-0152             
1 48043U 21025B   25249.12301230  .00000326  00000+0  85862-3 0  9995
2 48043  87.9025  16.6558 0001658  93.8878 266.2441 13.13469869216268
ONEWEB-0153             
1 48044U 21025C   25249.10100675  .00000120  00000+0  29416-3 0  9999
2 48044  87.9025  16.6593 0001761 100.0276 260.1052 13.13470919216254
ONEWEB-0154             
1 48045U 21025D   25249.09760254  .00000029  00000+0  43462-4 0  9999
2 48045  87.9026  16.6575 0001676  97.5169 262.6150 13.13473836216215
ONEWEB-0116             
1 48046U 21025E   25249.28890939  .00000084  00000+0  19446-3 0  9990
2 48046  87.9028  16.6011 0001708  93.7289 266.4035 13.13470549216380
ONEWEB-0150             
1 48047U 21025F   25249.26520671  .00000387  00000+0  10242-2 0  9992
2 48047  87.9027  16.6012 0001912  99.7352 260.3994 13.13470284216276
ONEWEB-0107             
1 48048U 21025G   25249.26690101  .00000338  00000+0  89118-3 0  9994
2 48048  87.9026  16.5987 0001680 108.7628 251.3684 13.13470163216255
ONEWEB-0101             
1 48049U 21025H   25249.30583038 -.00000212  00000+0 -61462-3 0  9995
2 48049  87.9021  16.6299 0001595 101.9422 258.1886 13.13470814216230
ONEWEB-0113             
1 48050U 21025J   25249.28384008 -.00006478  00000+0 -17648-1 0  9995
2 48050  87.9023  16.5760 0001941  96.3594 263.7757 13.14008435216324
