[{"OBJECT_NAME":"ONEWEB-0140","OBJECT_ID":"2020-100AE","EPOCH":"2025-09-05T23:39:41.513760","MEAN_MOTION":13.12441157,"ECCENTRICITY":0.0001558,"INCLINATION":87.8885,"RA_OF_ASC_NODE":47.1049,"ARG_OF_PERICENTER":94.554,"MEAN_ANOMALY":265.5766,"EPHEMERIS_TYPE":0,"CLASSIFICATION_TYPE":"U","NORAD_CAT_ID":47286,"ELEMENT_SET_NO":999,"REV_AT_EPOCH":22741,"BSTAR":-1.6847143e-5,"MEAN_MOTION_DOT":7.0e-8,"MEAN_MOTION_DDOT":0},{"OBJECT_NAME":"ONEWEB-0141","OBJECT_ID":"2020-100AF","EPOCH":"2025-09-06T04:24:26.675712","MEAN_MOTION":13.12444398,"ECCENTRICITY":0.00019484,"INCLINATION":87.888,"RA_OF_ASC_NODE":47.0809,"ARG_OF_PERICENTER":99.5146,"MEAN_ANOMALY":260.6203,"EPHEMERIS_TYPE":0,"CLASSIFICATION_TYPE":"U","NORAD_CAT_ID":47287,"ELEMENT_SET_NO":999,"REV_AT_EPOCH":22742,"BSTAR":0.00054383567,"MEAN_MOTION_DOT":2.08e-6,"MEAN_MOTION_DDOT":0},{"OBJECT_NAME":"ONEWEB-0142","OBJECT_ID":"2020-100AG","EPOCH":"2025-09-06T04:08:28.917888","MEAN_MOTION":13.12442075,"ECCENTRICITY":0.00018801,"INCLINATION":87.8891,"RA_OF_ASC_NODE":47.0983,"ARG_OF_PERICENTER":105.3483,"MEAN_ANOMALY":254.7854,"EPHEMERIS_TYPE":0,"CLASSIFICATION_TYPE":"U","NORAD_CAT_ID":47288,"ELEMENT_SET_NO":999,"REV_AT_EPOCH":22741,"BSTAR":-0.00076965675,"MEAN_MOTION_DOT":-2.64e-6,"MEAN_MOTION_DDOT":0},{"OBJECT_NAME":"ONEWEB-0143","OBJECT_ID":"2020-100AH","EPOCH":"2025-09-06T04:22:18.744960","MEAN_MOTION":13.12443761,"ECCENTRICITY":0.00016892,"INCLINATION":87.889,"RA_OF_ASC_NODE":47.0934,"ARG_OF_PERICENTER":92.9148,"MEAN_ANOMALY":267.2174,"EPHEMERIS_TYPE":0,"CLASSIFICATION_TYPE":"U","NORAD_CAT_ID":47289,"ELEMENT_SET_NO":999,"REV_AT_EPOCH":22739,"BSTAR":0.00027542375,"MEAN_MOTION_DOT":1.12e-6,"MEAN_MOTION_DDOT":0},{"OBJECT_NAME":"ONEWEB-0144","OBJECT_ID":"2020-100AJ","EPOCH":"2025-09-06T03:42:36.285696","MEAN_MOTION":13.12442657,"ECCENTRICITY":0.00016163,"INCLINATION":87.888,"RA_OF_ASC_NODE":47.0748,"ARG_OF_PERICENTER":103.1522,"MEAN_ANOMALY":256.9787,"EPHEMERIS_TYPE":0,"CLASSIFICATION_TYPE":"U","NORAD_CAT_ID":47290,"ELEMENT_SET_NO":999,"REV_AT_EPOCH":22731,"BSTAR":-0.0010446398,"MEAN_MOTION_DOT":-3.63e-6,"MEAN_MOTION_DDOT":0},{"OBJECT_NAME":"ONEWEB-0145","OBJECT_ID":"2020-100AK","EPOCH":"2025-09-06T04:50:21.181920","MEAN_MOTION":13.12443345,"ECCENTRICITY":0.00016208,"INCLINATION":87.8889,"RA_OF_ASC_NODE":47.0962,"ARG_OF_PERICENTER":96.2153,"MEAN_ANOMALY":263.916,"EPHEMERIS_TYPE":0,"CLASSIFICATION_TYPE":"U","NORAD_CAT_ID":47291,"ELEMENT_SET_NO":999,"REV_AT_EPOCH":22751,"BSTAR":0.0015637089,"MEAN_MOTION_DOT":5.75e-6,"MEAN_MOTION_DDOT":0},{"OBJECT_NAME":"ONEWEB-0146","OBJECT_ID":"2020-100AL","EPOCH":"2025-09-06T04:45:40.835520","MEAN_MOTION":13.12443007,"ECCENTRICITY":0.00018027,"INCLINATION":87.8889,"RA_OF_ASC_NODE":47.0834,"ARG_OF_PERICENTER":82.3676,"MEAN_ANOMALY":277.7657,"EPHEMERIS_TYPE":0,"CLASSIFICATION_TYPE":"U","NORAD_CAT_ID":47292,"ELEMENT_SET_NO":999,"REV_AT_EPOCH":22742,"BSTAR":0.0012453762,"MEAN_MOTION_DOT":4.61e-6,"MEAN_MOTION_DDOT":0},{"OBJECT_NAME":"ONEWEB-0147","OBJECT_ID":"2020-100AM","EPOCH":"2025-09-06T03:56:36.725280","MEAN_MOTION":13.12445151,"ECCENTRICITY":0.00013854,"INCLINATION":87.8889,"RA_OF_ASC_NODE":47.0686,"ARG_OF_PERICENTER":93.5725,"MEAN_ANOMALY":266.5562,"EPHEMERIS_TYPE":0,"CLASSIFICATION_TYPE":"U","NORAD_CAT_ID":47293,"ELEMENT_SET_NO":999,"REV_AT_EPOCH":22731,"BSTAR":-0.0011054618,"MEAN_MOTION_DOT":-3.85e-6,"MEAN_MOTION_DDOT":0},{"OBJECT_NAME":"ONEWEB-0115","OBJECT_ID":"2021-025A","EPOCH":"2025-09-06T06:17:01.577184","MEAN_MOTION":13.13471614,"ECCENTRICITY":0.00017246,"INCLINATION":87.9027,"RA_OF_ASC_NODE":16.614,"ARG_OF_PERICENTER":96.6193,"MEAN_ANOMALY":263.5133,"EPHEMERIS_TYPE":0,"CLASSIFICATION_TYPE":"U","NORAD_CAT_ID":48042,"ELEMENT_SET_NO":999,"REV_AT_EPOCH":21632,"BSTAR":0.00096993591,"MEAN_MOTION_DOT":3.67e-6,"MEAN_MOTION_DDOT":0},{"OBJECT_NAME":"ONEWEB-0152","OBJECT_ID":"2021-025B","EPOCH":"2025-09-06T02:57:08.262720","MEAN_MOTION":13.13469869,"ECCENTRICITY":0.00016581,"INCLINATION":87.9025,"RA_OF_ASC_NODE":16.6558,"ARG_OF_PERICENTER":93.8878,"MEAN_ANOMALY":266.2441,"EPHEMERIS_TYPE":0,"CLASSIFICATION_TYPE":"U","NORAD_CAT_ID":48043,"ELEMENT_SET_NO":999,"REV_AT_EPOCH":21626,"BSTAR":0.00085862499,"MEAN_MOTION_DOT":3.26e-6,"MEAN_MOTION_DDOT":0},{"OBJECT_NAME":"ONEWEB-0153","OBJECT_ID":"2021-025C","EPOCH":"2025-09-06T02:25:26.983200","MEAN_MOTION":13.13470919,"ECCENTRICITY":0.00017614,"INCLINATION":87.9025,"RA_OF_ASC_NODE":16.6593,"ARG_OF_PERICENTER":100.0276,"MEAN_ANOMALY":260.1052,"EPHEMERIS_TYPE":0,"CLASSIFICATION_TYPE":"U","NORAD_CAT_ID":48044,"ELEMENT_SET_NO":999,"REV_AT_EPOCH":21625,"BSTAR":0.00029416095,"MEAN_MOTION_DOT":1.2e-6,"MEAN_MOTION_DDOT":0},{"OBJECT_NAME":"ONEWEB-0154","OBJECT_ID":"2021-025D","EPOCH":"2025-09-06T02:20:32.859456","MEAN_MOTION":13.13473836,"ECCENTRICITY":0.00016769,"INCLINATION":87.9026,"RA_OF_ASC_NODE":16.6575,"ARG_OF_PERICENTER":97.5169,"MEAN_ANOMALY":262.615,"EPHEMERIS_TYPE":0,"CLASSIFICATION_TYPE":"U","NORAD_CAT_ID":48045,"ELEMENT_SET_NO":999,"REV_AT_EPOCH":21621,"BSTAR":4.3461708e-5,"MEAN_MOTION_DOT":2.9e-7,"MEAN_MOTION_DDOT":0},{"OBJECT_NAME":"ONEWEB-0116","OBJECT_ID":"2021-025E","EPOCH":"2025-09-06T06:56:01.771296","MEAN_MOTION":13.13470549,"ECCENTRICITY":0.0001708,"INCLINATION":87.9028,"RA_OF_ASC_NODE":16.6011,"ARG_OF_PERICENTER":93.7289,"MEAN_ANOMALY":266.4035,"EPHEMERIS_TYPE":0,"CLASSIFICATION_TYPE":"U","NORAD_CAT_ID":48046,"ELEMENT_SET_NO":999,"REV_AT_EPOCH":21638,"BSTAR":0.0001944644,"MEAN_MOTION_DOT":8.4e-7,"MEAN_MOTION_DDOT":0},{"OBJECT_NAME":"ONEWEB-0150","OBJECT_ID":"2021-025F","EPOCH":"2025-09-06T06:21:53.859744","MEAN_MOTION":13.13470284,"ECCENTRICITY":0.00019127,"INCLINATION":87.9027,"RA_OF_ASC_NODE":16.6012,"ARG_OF_PERICENTER":99.7352,"MEAN_ANOMALY":260.3994,"EPHEMERIS_TYPE":0,"CLASSIFICATION_TYPE":"U","NORAD_CAT_ID":48047,"ELEMENT_SET_NO":999,"REV_AT_EPOCH":21627,"BSTAR":0.0010242185,"MEAN_MOTION_DOT":3.87e-6,"MEAN_MOTION_DDOT":0},{"OBJECT_NAME":"ONEWEB-0107","OBJECT_ID":"2021-025G","EPOCH":"2025-09-06T06:24:20.247264","MEAN_MOTION":13.13470163,"ECCENTRICITY":0.00016802,"INCLINATION":87.9026,"RA_OF_ASC_NODE":16.5987,"ARG_OF_PERICENTER":108.7628,"MEAN_ANOMALY":251.3684,"EPHEMERIS_TYPE":0,"CLASSIFICATION_TYPE":"U","NORAD_CAT_ID":48048,"ELEMENT_SET_NO":999,"REV_AT_EPOCH":21625,"BSTAR":0.00089118168,"MEAN_MOTION_DOT":3.38e-6,"MEAN_MOTION_DDOT":0},{"OBJECT_NAME":"ONEWEB-0101","OBJECT_ID":"2021-025H","EPOCH":"2025-09-06T07:20:23.744832","MEAN_MOTION":13.13470814,"ECCENTRICITY":0.00015954,"INCLINATION":87.9021,"RA_OF_ASC_NODE":16.6299,"ARG_OF_PERICENTER":101.9422,"MEAN_ANOMALY":258.1886,"EPHEMERIS_TYPE":0,"CLASSIFICATION_TYPE":"U","NORAD_CAT_ID":48049,"ELEMENT_SET_NO":999,"REV_AT_EPOCH":21623,"BSTAR":-0.00061461815,"MEAN_MOTION_DOT":-2.12e-6,"MEAN_MOTION_DDOT":0},{"OBJECT_NAME":"ONEWEB-0113","OBJECT_ID":"2021-025J","EPOCH":"2025-09-06T06:48:43.782912","MEAN_MOTION":13.14008435,"ECCENTRICITY":0.00019419,"INCLINATION":87.9023,"RA_OF_ASC_NODE":16.576,"ARG_OF_PERICENTER":96.3594,"MEAN_ANOMALY":263.7757,"EPHEMERIS_TYPE":0,"CLASSIFICATION_TYPE":"U","NORAD_CAT_ID":48050,"ELEMENT_SET_NO":999,"REV_AT_EPOCH":21632,"BSTAR":-0.01764763,"MEAN_MOTION_DOT":-6.478e-5,"MEAN_MOTION_DDOT":0}]
